     2.100          NAVIGATION                              RINEX VERSION / TYPE
fic2rin                                 01/27/2015 00:33:13 PGM / RUN BY / DATE
                                                            END OF HEADER
 2 15  1 26 18  0  0.0  .544202513993D-03  .227373675443D-11  .000000000000D+00
     .840000000000D+02 -.365000000000D+02  .536093759028D-08  .928135033578D+00
    -.193715095520D-05  .142746040365D-01  .699423253536D-05  .515375143242D+04
     .151200000000D+06 -.160187482834D-06  .168767257674D+00  .139698386192D-06
     .940689366437D+00  .234906250000D+03 -.233336803520D+01 -.865928926558D-08
    -.210723063176D-09  .100000000000D+01  .182900000000D+04  .000000000000D+00
     .240000000000D+01  .000000000000D+00 -.204890966415D-07  .840000000000D+02
     .144006000000D+06  .400000000000D+01
 3 15  1 26 18  0  0.0  .172981061041D-03  .231921148952D-10  .000000000000D+00
     .320000000000D+02  .115000000000D+02  .459769151231D-08  .268896427112D+01
     .599771738052D-06  .958614051342D-03  .105518847704D-04  .515376354790D+04
     .151200000000D+06 -.745058059692D-08  .124401409402D+01  .745058059692D-08
     .959149771684D+00  .178781250000D+03 -.301541584490D+01 -.796604610351D-08
    -.546451333320D-10  .100000000000D+01  .182900000000D+04  .000000000000D+00
     .240000000000D+01  .000000000000D+00  .139698386192D-08  .320000000000D+02
     .144006000000D+06  .400000000000D+01
 4 15  1 26 18  0  0.0 -.621424987912D-05 -.568434188608D-12  .000000000000D+00
     .390000000000D+02 -.429687500000D+02  .533843665303D-08  .127751487854D+00
    -.233761966228D-05  .110013593221D-01  .686943531036D-05  .515373306847D+04
     .151200000000D+06 -.614672899246D-07  .184188200452D+00  .102445483208D-06
     .939718503779D+00  .239656250000D+03  .105133709051D+01 -.867678999456D-08
    -.750031241812D-10  .100000000000D+01  .182900000000D+04  .000000000000D+00
     .240000000000D+01  .000000000000D+00 -.651925802231D-08  .390000000000D+02
     .144006000000D+06  .400000000000D+01
 5 15  1 26 18  0  0.0 -.287546776235D-03  .522959453519D-11  .000000000000D+00
     .830000000000D+02  .158125000000D+02  .486770275936D-08 -.302509739579D+01
     .754371285439D-06  .404020817950D-02  .113490968943D-04  .515376434135D+04
     .151200000000D+06 -.558793544769D-07  .123856649284D+01 -.819563865662D-07
     .946434522225D+00  .153750000000D+03  .424287292469D+00 -.804890669784D-08
    -.147506144223D-09  .100000000000D+01  .182900000000D+04  .000000000000D+00
     .240000000000D+01  .000000000000D+00 -.107102096081D-07  .830000000000D+02
     .144006000000D+06  .400000000000D+01
 6 15  1 26 18  0  0.0  .629452988505D-04  .115960574476D-10  .000000000000D+00
     .590000000000D+02 -.448125000000D+02  .472519682341D-08  .299396180895D+01
    -.232830643654D-05  .425488571636D-03  .723637640476D-05  .515368132019D+04
     .151200000000D+06 -.540167093277D-07  .195161922009D+00  .372529029846D-07
     .961992907620D+00  .235812500000D+03  .250587696918D+01 -.817534053575D-08
    -.521450291926D-10  .100000000000D+01  .182900000000D+04  .000000000000D+00
     .240000000000D+01  .000000000000D+00  .465661287308D-08  .590000000000D+02
     .144006000000D+06  .400000000000D+01
 7 15  1 26 18  0  0.0  .434953719378D-03  .329691829393D-11  .000000000000D+00
     .300000000000D+02 -.182500000000D+02  .445661420730D-08 -.249481679502D+00
    -.106729567051D-05  .798188603949D-02  .539980828762D-05  .515373811913D+04
     .151200000000D+06  .521540641785D-07 -.291946637622D+01  .558793544769D-07
     .971707264445D+00  .279187500000D+03 -.275139238226D+01 -.830534595100D-08
    -.355014787791D-09  .100000000000D+01  .182900000000D+04  .000000000000D+00
     .240000000000D+01  .000000000000D+00 -.111758708954D-07  .300000000000D+02
     .144006000000D+06  .400000000000D+01
 8 15  1 26 18  0  0.0  .173044390976D-04  .113686837722D-12  .000000000000D+00
     .530000000000D+02 -.164687500000D+02  .387873299337D-08  .120763389466D+01
    -.782310962677D-06  .147906884085D-01  .585429370403D-05  .515221237373D+04
     .151200000000D+06 -.875443220139D-07 -.281474004422D+01  .173225998878D-06
     .995248409051D+00  .288125000000D+03 -.267112542319D+01 -.801961976364D-08
    -.464305054455D-09  .100000000000D+01  .182900000000D+04  .000000000000D+00
     .240000000000D+01  .630000000000D+02 -.512227416039D-08  .530000000000D+02
     .144006000000D+06  .400000000000D+01
 9 15  1 26 18  0  0.0 -.673364847898D-04 -.121644916362D-10  .000000000000D+00
     .400000000000D+01  .731875000000D+02  .478377069182D-08  .207733210819D+01
     .389106571674D-05  .322429579683D-03  .647455453873D-05  .515366477585D+04
     .151200000000D+06  .260770320892D-07  .228858660306D+01  .000000000000D+00
     .958250226283D+00  .251437500000D+03  .226953934676D+01 -.827677333226D-08
     .528593446610D-10  .100000000000D+01  .182900000000D+04  .000000000000D+00
     .240000000000D+01  .000000000000D+00  .465661287308D-09  .400000000000D+01
     .144006000000D+06  .400000000000D+01
10 15  1 26 18  0  0.0 -.160518568009D-03 -.170530256582D-11  .000000000000D+00
     .280000000000D+02  .192812500000D+02  .490306137504D-08 -.267673560723D+01
     .718981027603D-06  .145308343926D-01  .111479312181D-04  .515366091728D+04
     .151200000000D+06  .227242708206D-06  .125437649868D+01 -.225380063057D-06
     .941218983743D+00  .150750000000D+03  .919216277436D+00 -.799033282943D-08
    -.264296723305D-10  .100000000000D+01  .182900000000D+04  .000000000000D+00
     .340000000000D+01  .000000000000D+00 -.325962901115D-08  .280000000000D+02
     .144006000000D+06  .400000000000D+01
11 15  1 26 18  0  0.0 -.553566962481D-03 -.272848410532D-11  .000000000000D+00
     .660000000000D+02 -.294062500000D+02  .651491422947D-08 -.179960636380D+00
    -.157207250595D-05  .156051388476D-01  .548548996449D-05  .515372074127D+04
     .151200000000D+06 -.158324837685D-06 -.138087118191D+00  .109896063805D-06
     .892578498060D+00  .240781250000D+03  .137796454948D+01 -.940396314138D-08
     .118576367753D-09  .100000000000D+01  .182900000000D+04  .000000000000D+00
     .240000000000D+01  .000000000000D+00 -.121071934700D-07  .660000000000D+02
     .144006000000D+06  .400000000000D+01
12 15  1 26 18  0  0.0  .264453701675D-03  .306954461848D-11  .000000000000D+00
     .150000000000D+02 -.404062500000D+02  .375051336679D-08 -.700809283497D+00
    -.212900340557D-05  .520306953695D-02  .970438122749D-05  .515374966812D+04
     .151200000000D+06  .130385160446D-06 -.185288837256D+01  .614672899246D-07
     .989001466509D+00  .206906250000D+03  .502725203105D+00 -.780425364992D-08
    -.525021869268D-10  .100000000000D+01  .182900000000D+04  .000000000000D+00
     .240000000000D+01  .000000000000D+00 -.125728547573D-07  .150000000000D+02
     .144006000000D+06  .400000000000D+01
14 15  1 26 18  0  0.0  .931979157031D-04 -.352429196937D-11  .000000000000D+00
     .810000000000D+02  .683750000000D+02  .450411618595D-08  .233776188331D+01
     .343844294548D-05  .773788511287D-02  .693649053574D-05  .515377633667D+04
     .151200000000D+06  .558793544769D-08  .236803155285D+01 -.152736902237D-06
     .967601934493D+00  .245968750000D+03 -.197062045737D+01 -.799354724904D-08
     .435732435719D-10  .100000000000D+01  .182900000000D+04  .000000000000D+00
     .240000000000D+01  .000000000000D+00 -.931322574615D-08  .810000000000D+02
     .144006000000D+06  .400000000000D+01
15 15  1 26 18  0  0.0 -.228624790907D-03 -.227373675443D-11  .000000000000D+00
     .250000000000D+02  .847187500000D+02  .537522389965D-08  .168247598451D+01
     .459328293800D-05  .704117293935D-02  .752694904804D-05  .515358567429D+04
     .151200000000D+06 -.298023223877D-07  .224793399680D+01  .119209289551D-06
     .934151538727D+00  .221468750000D+03  .366059595097D+00 -.858821487648D-08
     .464305054455D-10  .100000000000D+01  .182900000000D+04  .000000000000D+00
     .240000000000D+01  .000000000000D+00 -.107102096081D-07  .250000000000D+02
     .144006000000D+06  .400000000000D+01
16 15  1 26 18  0  0.0 -.161692500114D-03  .318323145621D-11  .000000000000D+00
     .530000000000D+02 -.213437500000D+02  .362193658248D-08 -.283494939143D+01
    -.112317502499D-05  .798789318651D-02  .923313200474D-05  .515374220085D+04
     .151200000000D+06 -.577419996262D-07 -.183424122143D+01 -.372529029846D-07
     .989557141313D+00  .219593750000D+03  .232401168807D+00 -.762996067563D-08
     .692886004340D-10  .100000000000D+01  .182900000000D+04  .000000000000D+00
     .240000000000D+01  .000000000000D+00 -.102445483208D-07  .530000000000D+02
     .144006000000D+06  .400000000000D+01
17 15  1 26 18  0  0.0 -.152291264385D-03 -.238742359215D-11  .000000000000D+00
     .880000000000D+02 -.153125000000D+01  .426624913497D-08  .251873997483D+01
    -.894069671631D-07  .100236576982D-01  .697933137417D-05  .515370619392D+04
     .151200000000D+06  .931322574615D-07 -.805496322989D+00 -.109896063805D-06
     .971224274727D+00  .248843750000D+03 -.204539357536D+01 -.788604277105D-08
     .428232123301D-09  .100000000000D+01  .182900000000D+04  .000000000000D+00
     .240000000000D+01  .000000000000D+00 -.107102096081D-07  .880000000000D+02
     .144006000000D+06  .400000000000D+01
18 15  1 26 18  0  0.0  .375073868781D-03  .272848410532D-11  .000000000000D+00
     .860000000000D+02 -.875000000000D+00  .522557480902D-08 -.227490070014D+01
    -.782310962677D-07  .156254403992D-01  .106431543827D-04  .515375933647D+04
     .151200000000D+06  .180676579475D-06  .122801134433D+01 -.465661287308D-07
     .925009797297D+00  .149968750000D+03 -.199468460982D+01 -.808390815579D-08
     .000000000000D+00  .100000000000D+01  .182900000000D+04  .000000000000D+00
     .240000000000D+01  .000000000000D+00 -.111758708954D-07  .860000000000D+02
     .144006000000D+06  .400000000000D+01
